{"fetched_at":"2026-03-29T16:36:15Z","count":15609,"tles":[{"name":"STARLINK-2411","line1":"1 47826U 21018AR  26087.60406546 -.00002043  00000+0 -56866-4 0  9998","line2":"2 47826  53.1604 157.1378 0001228  83.7027 276.4114 15.30197432279592","category":"Starlink"}]}