{
  "norad_id": 47826,
  "name": "STARLINK-2411",
  "history": [
    {
      "epoch": "2026-03-28T14:29:51.255744",
      "apogee_km": 476.0643295908676,
      "perigee_km": 474.3811444394569,
      "latitude_deg": -53.09712446383758,
      "longitude_deg": 100.59028416010551,
      "semi_major_axis_km": 6853.359737015162,
      "eccentricity": 0.0001228,
      "inclination_deg": 53.1604,
      "raan_deg": 157.1378,
      "arg_perigee_deg": 83.7027,
      "mean_anomaly_deg": 276.4114,
      "mean_motion_rev_day": 15.30197432
    }
  ]
}